[{"OBJECT_NAME":"LYNK TOWER 3","OBJECT_ID":"2023-001AP","EPOCH":"2026-03-09T16:30:02.373408","MEAN_MOTION":15.34026505,"ECCENTRICITY":0.00098594,"INCLINATION":97.3321,"RA_OF_ASC_NODE":129.5399,"ARG_OF_PERICENTER":112.8813,"MEAN_ANOMALY":247.3472,"EPHEMERIS_TYPE":0,"CLASSIFICATION_TYPE":"U","NORAD_CAT_ID":55046,"ELEMENT_SET_NO":999,"REV_AT_EPOCH":17664,"BSTAR":0.00042323634,"MEAN_MOTION_DOT":0.00013886,"MEAN_MOTION_DDOT":0},{"OBJECT_NAME":"STARLINK-35750","OBJECT_ID":"2025-244D","EPOCH":"2026-03-09T18:10:47.607744","MEAN_MOTION":15.30194327,"ECCENTRICITY":0.00010834,"INCLINATION":53.1591,"RA_OF_ASC_NODE":229.3372,"ARG_OF_PERICENTER":80.4062,"MEAN_ANOMALY":279.7061,"EPHEMERIS_TYPE":0,"CLASSIFICATION_TYPE":"U","NORAD_CAT_ID":66209,"ELEMENT_SET_NO":999,"REV_AT_EPOCH":2167,"BSTAR":0.00095626258,"MEAN_MOTION_DOT":0.00028065,"MEAN_MOTION_DDOT":0}]
